      2.10          N: GNSS NAV DATA                        RINEX VERSION / TYPE
fic2rin                                 01/07/2019 00:19:18 PGM / RUN BY / DATE
                                                            END OF HEADER
28 19  1  6  6  0  0.0 7.610609754920e-04 1.364242052659e-12 0.000000000000e+00
    8.800000000000e+01 1.333750000000e+02 3.723726536728e-09-1.877831193104e+00
    7.318332791328e-06 1.950897159986e-02 6.688758730888e-06 5.153706275940e+03
    2.160000000000e+04 1.881271600723e-07-2.483425537625e+00 3.930181264877e-07
    9.838823504205e-01 2.620312500000e+02-1.480961207613e+00-7.563172179336e-09
    2.753686130652e-10 1.000000000000e+00 2.035000000000e+03 0.000000000000e+00
    3.400000000000e+00 0.000000000000e+00-1.117587089539e-08 8.800000000000e+01
    1.440600000000e+04 4.000000000000e+00
24 19  1  6  6  0  0.0-6.042094901204e-05-4.547473508865e-13 0.000000000000e+00
    1.860000000000e+02 6.031250000000e+00 4.860559604675e-09 1.707456628799e+00
    2.887099981308e-07 8.020225679502e-03 9.728595614433e-06 5.153736558914e+03
    2.160000000000e+04-1.117587089539e-07 2.616578429166e+00 9.499490261078e-08
    9.398565973941e-01 1.807500000000e+02 5.747093687120e-01-8.088908364073e-09
   -5.678807973718e-10 1.000000000000e+00 2.035000000000e+03 0.000000000000e+00
    3.400000000000e+00 0.000000000000e+00 2.793967723846e-09 1.860000000000e+02
    1.440600000000e+04 4.000000000000e+00
11 19  1  6  5 59 44.0-6.791679188609e-04 5.115907697473e-12 0.000000000000e+00
    2.600000000000e+01-1.085000000000e+02 6.062395380244e-09 6.857104021335e-01
   -5.902722477913e-06 1.662500528619e-02 2.674758434296e-06 5.153678363800e+03
    2.158400000000e+04-1.434236764908e-07-9.134274008777e-01-2.142041921616e-07
    9.079948355724e-01 3.036875000000e+02 1.853001030416e+00-9.193597235941e-09
   -2.532248335450e-10 1.000000000000e+00 2.035000000000e+03 0.000000000000e+00
    2.400000000000e+00 0.000000000000e+00-1.210719347000e-08 2.600000000000e+01
    1.788600000000e+04 4.000000000000e+00
 3 19  1  6  5 59 44.0 1.752604730427e-04 2.728484105319e-12 0.000000000000e+00
    1.000000000000e+00-1.671875000000e+01 4.384468344991e-09 2.810866670165e-01
   -8.828938007355e-07 1.868096063845e-03 9.963288903236e-06 5.153607906342e+03
    2.158400000000e+04 3.166496753693e-08 5.702804310404e-01 2.980232238770e-08
    9.622716227727e-01 1.872500000000e+02 6.870598636011e-01-7.790681656019e-09
    4.610906348471e-10 1.000000000000e+00 2.035000000000e+03 0.000000000000e+00
    2.400000000000e+00 0.000000000000e+00 2.328306436539e-09 1.000000000000e+00
    1.800600000000e+04 4.000000000000e+00
 3 19  1  6  7 59 44.0 1.752800308168e-04 2.728484105319e-12 0.000000000000e+00
    3.500000000000e+01-1.856250000000e+01 4.351966991179e-09 1.330996525874e+00
   -9.704381227493e-07 1.868412946351e-03 1.017749309540e-05 5.153609107971e+03
    2.878400000000e+04 0.000000000000e+00 5.702241745257e-01 8.381903171539e-08
    9.622750284460e-01 1.823125000000e+02 6.873700168631e-01-7.781752712664e-09
    4.989493546719e-10 1.000000000000e+00 2.035000000000e+03 0.000000000000e+00
    2.400000000000e+00 0.000000000000e+00 2.328306436539e-09 3.500000000000e+01
    2.160600000000e+04 4.000000000000e+00
11 19  1  6  7 59 44.0-6.791311316192e-04 5.115907697473e-12 0.000000000000e+00
    2.700000000000e+01-1.166562500000e+02 5.778097823824e-09 1.735782460570e+00
   -6.310641765594e-06 1.662617351394e-02 1.646578311920e-06 5.153682537079e+03
    2.878400000000e+04 3.315508365631e-07-9.134920384501e-01-1.713633537292e-07
    9.079950681763e-01 3.183125000000e+02 1.853115291633e+00-8.720006080397e-09
   -2.567964108870e-10 1.000000000000e+00 2.035000000000e+03 0.000000000000e+00
    2.400000000000e+00 0.000000000000e+00-1.210719347000e-08 2.700000000000e+01
    2.160600000000e+04 4.000000000000e+00
 2 19  1  6  8  0  0.0-1.056827604771e-04-1.011812855722e-11 0.000000000000e+00
    7.600000000000e+01-1.417187500000e+02 4.467328939325e-09 2.745141008542e+00
   -7.255002856255e-06 1.871557440609e-02 6.329268217087e-06 5.153635416031e+03
    2.880000000000e+04 1.564621925354e-07-5.376361923740e-01-2.346932888031e-07
    9.533070494994e-01 2.490000000000e+02-1.795386781409e+00-7.770680822904e-09
   -2.775115594704e-10 1.000000000000e+00 2.035000000000e+03 0.000000000000e+00
    2.400000000000e+00 0.000000000000e+00-2.048909664154e-08 7.600000000000e+01
    2.160600000000e+04 4.000000000000e+00
 1 19  1  6  8  0  0.0-1.407456584275e-04-6.252776074689e-12 0.000000000000e+00
    1.070000000000e+02-1.409687500000e+02 4.030525030403e-09 2.415105895495e+00
   -7.297843694687e-06 8.255581604317e-03 7.444992661476e-06 5.153669002533e+03
    2.880000000000e+04-8.381903171539e-08-4.718625821477e-01-1.434236764908e-07
    9.742463562656e-01 2.440000000000e+02 6.909785720196e-01-7.742108204169e-09
   -1.728643433509e-10 1.000000000000e+00 2.035000000000e+03 0.000000000000e+00
    2.400000000000e+00 0.000000000000e+00 5.587935447693e-09 1.070000000000e+02
    2.160600000000e+04 4.000000000000e+00
 8 19  1  6  8  0  0.0-1.281099393964e-04-1.250555214938e-12 0.000000000000e+00
    3.400000000000e+01 7.375000000000e+00 4.684837999450e-09-1.312779450716e+00
    1.955777406693e-07 4.070264287293e-03 1.713633537292e-07 5.153673698425e+03
    2.880000000000e+04-5.401670932770e-08-1.538170352661e+00-5.587935447693e-08
    9.697742420298e-01 3.826875000000e+02-3.908772395945e-01-8.458923776700e-09
    1.221479450951e-10 1.000000000000e+00 2.035000000000e+03 0.000000000000e+00
    2.400000000000e+00 0.000000000000e+00 5.122274160385e-09 3.400000000000e+01
    2.160600000000e+04 4.000000000000e+00
 5 19  1  6  8  0  0.0 7.036142051220e-07 1.136868377216e-13 0.000000000000e+00
    6.100000000000e+01-1.221875000000e+01 4.626264131042e-09-9.464495390794e-01
   -6.370246410370e-07 5.556138698012e-03 9.967014193535e-06 5.153607677460e+03
    2.880000000000e+04 9.499490261078e-08 5.453268024559e-01 5.401670932770e-08
    9.491734735251e-01 1.813437500000e+02 7.224192460385e-01-7.959260106560e-09
    4.350181202508e-10 1.000000000000e+00 2.035000000000e+03 0.000000000000e+00
    2.400000000000e+00 0.000000000000e+00-1.117587089539e-08 6.100000000000e+01
    2.160600000000e+04 4.000000000000e+00
 7 19  1  6  8  0  0.0 5.687959492207e-05-7.048583938740e-12 0.000000000000e+00
    9.100000000000e+01 1.531250000000e+00 4.469471885730e-09 1.786113566068e+00
    1.210719347000e-07 1.213544816710e-02 1.031719148159e-05 5.153621616364e+03
    2.880000000000e+04-2.831220626831e-07 2.680034467016e+00 1.303851604462e-08
    9.567895771892e-01 1.809062500000e+02-2.479140883175e+00-7.902829184557e-09
   -6.325263472613e-10 1.000000000000e+00 2.035000000000e+03 0.000000000000e+00
    2.400000000000e+00 0.000000000000e+00-1.117587089539e-08 9.100000000000e+01
    2.160600000000e+04 4.000000000000e+00
 6 19  1  6  8  0  0.0 3.023617900908e-04-7.389644451905e-12 0.000000000000e+00
    8.800000000000e+01-1.336875000000e+02 4.141958243472e-09 2.719455477653e+00
   -6.770715117455e-06 1.307382481173e-03 7.081776857376e-06 5.153776401520e+03
    2.880000000000e+04 5.587935447693e-08-4.801547646247e-01-4.284083843231e-08
    9.739180130802e-01 2.495625000000e+02-1.218093198631e+00-7.851398470833e-09
   -2.114373786441e-10 1.000000000000e+00 2.035000000000e+03 0.000000000000e+00
    2.400000000000e+00 0.000000000000e+00 4.656612873077e-09 8.800000000000e+01
    2.160600000000e+04 4.000000000000e+00
19 19  1  6  8  0  0.0-3.662663511932e-04 3.979039320257e-12 0.000000000000e+00
    5.000000000000e+00-1.025000000000e+01 4.446970948475e-09 1.072528712612e+00
   -6.314367055893e-07 9.390237391926e-03 7.841736078262e-07 5.153613370895e+03
    2.880000000000e+04-1.564621925354e-07-1.425991643853e+00 0.000000000000e+00
    9.811711696947e-01 3.784375000000e+02 1.330473529734e+00-8.381420548380e-09
   -3.785871982478e-11 1.000000000000e+00 2.035000000000e+03 0.000000000000e+00
    2.400000000000e+00 0.000000000000e+00-1.536682248116e-08 5.000000000000e+00
    2.160600000000e+04 4.000000000000e+00
22 19  1  6  8  0  0.0-6.162934005260e-04-8.867573342286e-12 0.000000000000e+00
    4.200000000000e+01-1.943750000000e+01 5.050924677001e-09-2.455524567986e+00
   -1.002103090286e-06 7.058511720970e-03 1.013092696667e-05 5.153615953445e+03
    2.880000000000e+04 7.264316082001e-08 5.023712193549e-01 1.005828380585e-07
    9.266489882270e-01 1.613125000000e+02-1.440498022913e+00-7.983189674751e-09
    5.300220775470e-10 1.000000000000e+00 2.035000000000e+03 0.000000000000e+00
    2.400000000000e+00 0.000000000000e+00-1.816079020500e-08 4.200000000000e+01
    2.160600000000e+04 4.000000000000e+00
30 19  1  6  8  0  0.0-3.142748028040e-05-6.025402399246e-12 0.000000000000e+00
    3.200000000000e+01 2.187500000000e+00 4.739125975048e-09 1.786122002716e+00
    2.086162567139e-07 3.579760668799e-03 1.017376780510e-05 5.153643621445e+03
    2.880000000000e+04-7.636845111847e-08 2.710317416925e+00 3.725290298462e-09
    9.423218630537e-01 1.739687500000e+02-3.006424889367e+00-7.976403677801e-09
   -6.032394130572e-10 1.000000000000e+00 2.035000000000e+03 0.000000000000e+00
    2.400000000000e+00 0.000000000000e+00 3.725290298462e-09 3.200000000000e+01
    2.160600000000e+04 4.000000000000e+00
16 19  1  6  8  0  0.0-1.103663817048e-05-2.273736754432e-12 0.000000000000e+00
    6.600000000000e+01 1.332500000000e+02 3.798015345441e-09-7.630630484560e-01
    7.081776857376e-06 1.038721436635e-02 6.861984729767e-06 5.153760137558e+03
    2.880000000000e+04 2.030283212662e-07-2.487541173835e+00 7.823109626770e-08
    9.849692502771e-01 2.572187500000e+02 5.243780788861e-01-7.861756045124e-09
    2.771544017362e-10 1.000000000000e+00 2.035000000000e+03 0.000000000000e+00
    2.400000000000e+00 0.000000000000e+00-1.071020960808e-08 6.600000000000e+01
    2.160600000000e+04 4.000000000000e+00
